[{"OBJECT_NAME":"ALTAIR (RS65S)","OBJECT_ID":"2024-199AW","EPOCH":"2026-03-09T21:31:54.569568","MEAN_MOTION":15.34998047,"ECCENTRICITY":0.00120363,"INCLINATION":97.3179,"RA_OF_ASC_NODE":298.9542,"ARG_OF_PERICENTER":307.5319,"MEAN_ANOMALY":52.483,"EPHEMERIS_TYPE":0,"CLASSIFICATION_TYPE":"U","NORAD_CAT_ID":61779,"ELEMENT_SET_NO":999,"REV_AT_EPOCH":12187,"BSTAR":0.00027541775,"MEAN_MOTION_DOT":9.293e-5,"MEAN_MOTION_DDOT":0},{"OBJECT_NAME":"STARLINK-34518","OBJECT_ID":"2025-133J","EPOCH":"2026-03-09T12:13:56.342496","MEAN_MOTION":15.30193054,"ECCENTRICITY":0.00012959,"INCLINATION":53.1587,"RA_OF_ASC_NODE":117.4416,"ARG_OF_PERICENTER":94.6877,"MEAN_ANOMALY":265.4271,"EPHEMERIS_TYPE":0,"CLASSIFICATION_TYPE":"U","NORAD_CAT_ID":64480,"ELEMENT_SET_NO":999,"REV_AT_EPOCH":4100,"BSTAR":0.00081004167,"MEAN_MOTION_DOT":0.00023703,"MEAN_MOTION_DDOT":0}]
